STARLINK-1788
1 46689U 20073V   26061.16668981  .00118599  00000+0  14301-2 0  9998
2 46689  53.0439 255.2204 0003179 117.9423  25.1583 15.59919027  5913
